[{"OBJECT_NAME":"STARLINK-35423","OBJECT_ID":"2025-223V","EPOCH":"2026-03-09T21:53:17.655360","MEAN_MOTION":15.3021659,"ECCENTRICITY":0.00011312,"INCLINATION":53.1578,"RA_OF_ASC_NODE":292.8619,"ARG_OF_PERICENTER":56.2826,"MEAN_ANOMALY":303.8282,"EPHEMERIS_TYPE":0,"CLASSIFICATION_TYPE":"U","NORAD_CAT_ID":65873,"ELEMENT_SET_NO":999,"REV_AT_EPOCH":2424,"BSTAR":0.0011933441,"MEAN_MOTION_DOT":0.0003517,"MEAN_MOTION_DDOT":0},{"OBJECT_NAME":"USA 76","OBJECT_ID":"1991-076D","EPOCH":"2026-03-09T13:26:15.944928","MEAN_MOTION":13.58542045,"ECCENTRICITY":0.0886705,"INCLINATION":63.2994,"RA_OF_ASC_NODE":60.1095,"ARG_OF_PERICENTER":72.6365,"MEAN_ANOMALY":296.9601,"EPHEMERIS_TYPE":0,"CLASSIFICATION_TYPE":"U","NORAD_CAT_ID":21808,"ELEMENT_SET_NO":999,"REV_AT_EPOCH":9249,"BSTAR":0.00059173,"MEAN_MOTION_DOT":7.457e-5,"MEAN_MOTION_DDOT":0}]
